NORAD_CAT_ID,OBJECT_NAME,OBJECT_TYPE,EPOCH,MEAN_MOTION,ECCENTRICITY,INCLINATION,RA_OF_ASC_NODE,ARG_OF_PERICENTER,MEAN_ANOMALY,BSTAR,MEAN_MOTION_DOT,MEAN_MOTION_DDOT,TLE_LINE0,TLE_LINE1,TLE_LINE2,SEMIMAJOR_AXIS,PERIOD,APOGEE,PERIGEE,DECAYED
49728.0,STARLINK-3240,PAYLOAD,2024-02-16 16:14:04,15.08866721,0.0001736,53.2141,295.0454,74.6046,285.5138,0.00081961,0.0001279,0.0,0 STARLINK-3240,1 49728U 21115E   24047.67644334  .00012790  00000-0  81961-3 0  9991,2 49728  53.2141 295.0454 0001736  74.6046 285.5138 15.08866721122978,6917.799,95.436,540.865,538.463,0.0
49728.0,STARLINK-3240,PAYLOAD,2024-02-16 22:35:37,15.08855874,0.0001581,53.2168,293.8537,80.0641,280.053,0.00012649,1.726e-05,0.0,0 STARLINK-3240,1 49728U 21115E   24047.94140146  .00001726  00000-0  12649-3 0  9997,2 49728  53.2168 293.8537 0001581  80.0641 280.0530 15.08855874121900,6917.832,95.437,540.791,538.603,0.0
49728.0,STARLINK-3240,PAYLOAD,2024-02-17 01:46:23,15.08862534,0.0001416,53.2161,293.2571,83.173,276.9423,0.00033856,5.108e-05,0.0,0 STARLINK-3240,1 49728U 21115E   24048.07387945  .00005108  00000-0  33856-3 0  9993,2 49728  53.2161 293.2571 0001416  83.1730 276.9423 15.08862534123037,6917.812,95.436,540.656,538.697,0.0
49728.0,STARLINK-3240,PAYLOAD,2024-02-17 09:43:18,15.08853819,0.0001491,53.2152,291.7737,65.2946,294.8201,5.3826e-05,5.69e-06,0.0,0 STARLINK-3240,1 49728U 21115E   24048.40507973  .00000569  00000-0  53826-4 0  9991,2 49728  53.2152 291.7737 0001491  65.2946 294.8201 15.08853819123081,6917.838,95.437,540.735,538.672,0.0
49728.0,STARLINK-3240,PAYLOAD,2024-02-17 22:26:23,15.08850231,0.0001368,53.2164,289.3903,104.7264,255.3879,6.4913e-05,7.46e-06,0.0,0 STARLINK-3240,1 49728U 21115E   24048.93499659  .00000746  00000-0  64913-4 0  9996,2 49728  53.2164 289.3903 0001368 104.7264 255.3879 15.08850231122051,6917.849,95.437,540.66,538.768,0.0
49728.0,STARLINK-3240,PAYLOAD,2024-02-18 01:37:09,15.08850931,0.0001419,53.2163,288.7949,108.8516,251.263,0.00013108,1.799e-05,0.0,0 STARLINK-3240,1 49728U 21115E   24049.06747582  .00001799  00000-0  13108-3 0  9990,2 49728  53.2163 288.7949 0001419 108.8516 251.2630 15.08850931122074,6917.847,95.437,540.694,538.73,0.0
49728.0,STARLINK-3240,PAYLOAD,2024-02-18 19:06:24,15.08844714,0.0001443,53.2153,285.5244,100.7877,259.3277,0.00012585,1.716e-05,0.0,0 STARLINK-3240,1 49728U 21115E   24049.79611830  .00001716  00000-0  12585-3 0  9993,2 49728  53.2153 285.5244 0001443 100.7877 259.3277 15.08844714123297,6917.866,95.437,540.729,538.733,0.0
49728.0,STARLINK-3240,PAYLOAD,2024-02-18 22:17:10,15.08846624,0.0001404,53.2158,284.9301,92.9328,267.1825,0.00016179,2.288e-05,0.0,0 STARLINK-3240,1 49728U 21115E   24049.92859758  .00002288  00000-0  16179-3 0  9999,2 49728  53.2158 284.9301 0001404  92.9328 267.1825 15.08846624122207,6917.86,95.437,540.696,538.754,0.0
49728.0,STARLINK-3240,PAYLOAD,2024-02-19 01:27:56,15.08848797,0.0001379,53.2156,284.3339,96.1346,263.9803,0.00015927,2.248e-05,0.0,0 STARLINK-3240,1 49728U 21115E   24050.06107574  .00002248  00000-0  15927-3 0  9994,2 49728  53.2156 284.3339 0001379  96.1346 263.9803 15.08848797122222,6917.854,95.437,540.672,538.765,0.0
49728.0,STARLINK-3240,PAYLOAD,2024-02-19 18:57:12,15.08832159,0.0001373,53.2151,281.0614,100.4257,259.6889,3.9999e-06,-2.24e-06,0.0,0 STARLINK-3240,1 49728U 21115E   24050.78972451 -.00000224  00000-0  39999-5 0  9997,2 49728  53.2151 281.0614 0001373 100.4257 259.6889 15.08832159123447,6917.904,95.438,540.719,538.82,0.0
49728.0,STARLINK-3240,PAYLOAD,2024-02-19 22:07:58,15.08836568,0.0001224,53.2157,280.4702,90.8149,269.2984,-4.7173e-06,-3.63e-06,0.0,0 STARLINK-3240,1 49728U 21115E   24050.92220336 -.00000363  00000-0 -47173-5 0  9999,2 49728  53.2157 280.4702 0001224  90.8149 269.2984 15.08836568122351,6917.891,95.438,540.603,538.909,0.0
49728.0,STARLINK-3240,PAYLOAD,2024-02-20 07:40:17,15.08839412,0.0001368,53.2156,278.6852,82.2724,277.8423,9.3638e-05,1.203e-05,0.0,0 STARLINK-3240,1 49728U 21115E   24051.31964390  .00001203  00000-0  93638-4 0  9996,2 49728  53.2156 278.6852 0001368  82.2724 277.8423 15.08839412122419,6917.882,95.438,540.694,538.801,0.0
49728.0,STARLINK-3240,PAYLOAD,2024-02-20 18:47:58,15.08845662,0.0001298,53.2153,276.6035,82.6489,277.465,0.00016284,2.305e-05,0.0,0 STARLINK-3240,1 49728U 21115E   24051.78332109  .00002305  00000-0  16284-3 0  9999,2 49728  53.2153 276.6035 0001298  82.6489 277.4650 15.08845662123593,6917.863,95.437,540.626,538.83,0.0
49728.0,STARLINK-3240,PAYLOAD,2024-02-20 21:58:45,15.08849727,0.0001349,53.2156,276.0094,80.6013,279.5131,0.00021309,3.106e-05,0.0,0 STARLINK-3240,1 49728U 21115E   24051.91579876  .00003106  00000-0  21309-3 0  9992,2 49728  53.2156 276.0094 0001349  80.6013 279.5131 15.08849727122506,6917.851,95.437,540.649,538.782,0.0
49728.0,STARLINK-3240,PAYLOAD,2024-02-21 10:41:50,15.08837325,0.0001341,53.2147,273.6317,72.8076,287.3062,0.00010675,1.411e-05,0.0,0 STARLINK-3240,1 49728U 21115E   24052.44572503  .00001411  00000-0  10675-3 0  9992,2 49728  53.2147 273.6317 0001341  72.8076 287.3062 15.08837325123693,6917.889,95.438,540.681,538.826,0.0
49728.0,STARLINK-3240,PAYLOAD,2024-02-21 13:52:36,15.08839984,0.0001336,53.2146,273.037,74.1265,285.9874,7.2087e-05,8.6e-06,0.0,0 STARLINK-3240,1 49728U 21115E   24052.57820338  .00000860  00000-0  72087-4 0  9991,2 49728  53.2146 273.0370 0001336  74.1265 285.9874 15.08839984122602,6917.88,95.438,540.67,538.821,0.0
49728.0,STARLINK-3240,PAYLOAD,2024-02-21 21:49:32,15.08846934,0.0001308,53.2147,271.5501,87.7727,272.3415,0.00030354,4.547e-05,0.0,0 STARLINK-3240,1 49728U 21115E   24052.90940000  .00004547  00000-0  30354-3 0  9993,2 49728  53.2147 271.5501 0001308  87.7727 272.3415 15.08846934122653,6917.859,95.437,540.629,538.819,0.0
49728.0,STARLINK-3240,PAYLOAD,2024-02-22 02:35:41,15.08850004,0.0001302,53.2144,270.6578,89.5764,270.5377,0.00048934,7.511e-05,0.0,0 STARLINK-3240,1 49728U 21115E   24053.10811913  .00007511  00000-0  48934-3 0  9993,2 49728  53.2144 270.6578 0001302  89.5764 270.5377 15.08850004123795,6917.85,95.437,540.616,538.814,0.0
49728.0,STARLINK-3240,PAYLOAD,2024-02-22 10:32:37,15.08839228,0.0001321,53.2144,269.1709,89.8082,270.3061,1.8643e-05,9e-08,0.0,0 STARLINK-3240,1 49728U 21115E   24053.43932110  .00000009  00000-0  18643-4 0  9992,2 49728  53.2144 269.1709 0001321  89.8082 270.3061 15.08839228123840,6917.883,95.438,540.662,538.834,0.0
49728.0,STARLINK-3240,PAYLOAD,2024-02-22 13:43:23,15.08841237,0.000134,53.2142,268.5761,89.641,270.4735,3.7632e-05,3.11e-06,0.0,0 STARLINK-3240,1 49728U 21115E   24053.57180102  .00000311  00000-0  37632-4 0  9998,2 49728  53.2142 268.5761 0001340  89.6410 270.4735 15.08841237122754,6917.877,95.437,540.669,538.815,0.0
49728.0,STARLINK-3240,PAYLOAD,2024-02-22 21:40:19,15.08844592,0.0001323,53.2143,267.0891,88.8047,271.3097,7.3536e-05,8.83e-06,0.0,0 STARLINK-3240,1 49728U 21115E   24053.90299951  .00000883  00000-0  73536-4 0  9995,2 49728  53.2143 267.0891 0001323  88.8047 271.3097 15.08844592122805,6917.866,95.437,540.647,538.816,0.0
49728.0,STARLINK-3240,PAYLOAD,2024-02-23 13:34:10,15.08841743,0.0001295,53.2145,264.1152,87.9131,272.2009,4.6182e-05,4.47e-06,0.0,0 STARLINK-3240,1 49728U 21115E   24054.56540102  .00000447  00000-0  46182-4 0  9998,2 49728  53.2145 264.1152 0001295  87.9131 272.2009 15.08841743122906,6917.875,95.437,540.636,538.844,0.0
49728.0,STARLINK-3240,PAYLOAD,2024-02-23 19:55:43,15.08845181,0.0001308,53.2146,262.9259,89.4054,270.7088,0.00019155,2.762e-05,0.0,0 STARLINK-3240,1 49728U 21115E   24054.83036029  .00002762  00000-0  19155-3 0  9997,2 49728  53.2146 262.9259 0001308  89.4054 270.7088 15.08845181124055,6917.865,95.437,540.634,538.825,0.0
49728.0,STARLINK-3240,PAYLOAD,2024-02-23 21:31:06,15.08845558,0.0001311,53.2146,262.6285,89.5677,270.5466,0.00019015,2.74e-05,0.0,0 STARLINK-3240,1 49728U 21115E   24054.89659982  .00002740  00000-0  19015-3 0  9993,2 49728  53.2146 262.6285 0001311  89.5677 270.5466 15.08845558122950,6917.863,95.437,540.635,538.821,0.0
49728.0,STARLINK-3240,PAYLOAD,2024-02-24 13:24:59,15.08821857,0.0001263,53.2144,259.6547,102.8459,257.2674,0.0007324,0.00011382,0.0,0 STARLINK-3240,1 49728U 21115E   24055.55901715  .00011382  00000-0  73240-3 0  9993,2 49728  53.2144 259.6547 0001263 102.8459 257.2674 15.08821857123059,6917.936,95.439,540.675,538.927,0.0
49728.0,STARLINK-3240,PAYLOAD,2024-02-24 19:46:30,15.0884158,0.0001305,53.2144,258.4651,87.7501,272.364,0.00012962,1.776e-05,0.0,0 STARLINK-3240,1 49728U 21115E   24055.82396288  .00001776  00000-0  12962-3 0  9996,2 49728  53.2144 258.4651 0001305  87.7501 272.3640 15.08841580124202,6917.876,95.437,540.643,538.838,0.0
49728.0,STARLINK-3240,PAYLOAD,2024-02-25 06:54:12,15.08846625,0.0001303,53.2144,256.3833,88.6015,271.5127,0.00013265,1.824e-05,0.0,0 STARLINK-3240,1 49728U 21115E   24056.28763948  .00001824  00000-0  13265-3 0  9999,2 49728  53.2144 256.3833 0001303  88.6015 271.5127 15.08846625123169,6917.86,95.437,540.627,538.824,0.0
49728.0,STARLINK-3240,PAYLOAD,2024-02-25 22:48:03,15.08844394,0.0001318,53.2144,253.4094,87.7544,272.3598,0.00011308,1.512e-05,0.0,0 STARLINK-3240,1 49728U 21115E   24056.95004001  .00001512  00000-0  11308-3 0  9991,2 49728  53.2144 253.4094 0001318  87.7544 272.3598 15.08844394123262,6917.867,95.437,540.644,538.82,0.0
49728.0,STARLINK-3240,PAYLOAD,2024-02-26 19:28:04,15.0883962,0.0001383,53.2153,249.5422,93.6945,266.4205,3.7817e-05,3.14e-06,0.0,0 STARLINK-3240,1 49728U 21115E   24057.81116413  .00000314  00000-0  37817-4 0  9991,2 49728  53.2153 249.5422 0001383  93.6945 266.4205 15.08839620124509,6917.882,95.438,540.703,538.79,0.0
49728.0,STARLINK-3240,PAYLOAD,2024-02-26 22:38:50,15.0884021,0.000138,53.2152,248.9472,93.7798,266.3352,3.7429e-05,3.08e-06,0.0,0 STARLINK-3240,1 49728U 21115E   24057.94364351  .00000308  00000-0  37429-4 0  9993,2 49728  53.2152 248.9472 0001380  93.7798 266.3352 15.08840210123418,6917.88,95.438,540.699,538.79,0.0
